0 COSMOS 2251 DEB
1 35895U 93036AUJ 13282.64479084  .00000306  00000-0  22392-3 0  2352
2 35895 074.0498 024.0090 0236940 068.4287 294.1954 13.87002451208610
0 COSMOS 2251 DEB
1 35895U 93036AUJ 13283.94304220  .00000306  00000-0  22396-3 0  2360
2 35895 074.0498 021.8112 0236861 065.9166 296.6551 13.87003306208799
0 COSMOS 2251 DEB
1 35895U 93036AUJ 13284.95279264  .00000309  00000-0  22633-3 0  2379
2 35895 074.0482 020.1021 0236965 063.8430 298.6836 13.87004031208939
0 COSMOS 2251 DEB
1 35895U 93036AUJ 13286.61166667  .00000356  00000-0  25880-3 0  2386
2 35895 074.0475 017.2929 0236901 060.2601 302.2013 13.87006299209169
0 COSMOS 2251 DEB
1 35895U 93036AUJ 13287.54928579  .00000445  00000-0  32001-3 0  2390
2 35895 074.0547 015.6987 0235749 058.6611 303.7805 13.87008951209292
0 COSMOS 2251 DEB
1 35895U 93036AUJ 13288.91964417  .00000475  00000-0  34094-3 0  2402
2 35895 074.0546 013.3785 0235557 056.1819 306.1608 13.87010781209485
0 COSMOS 2251 DEB
1 35895U 93036AUJ 13290.57849890  .00000540  00000-0  38631-3 0  2419
2 35895 074.0572 010.5718 0234716 053.2715 308.9862 13.87014024209710
0 COSMOS 2251 DEB
1 35895U 93036AUJ 13292.52584979  .00000667  00000-0  47345-3 0  2423
2 35895 074.0578 007.2772 0234389 049.8879 312.2984 13.87018814209980
0 COSMOS 2251 DEB
1 35895U 93036AUJ 13293.53557597  .00000667  00000-0  47345-3 0  2432
2 35895 074.0578 005.5687 0234387 047.9478 314.1330 13.87020203210127
0 COSMOS 2251 DEB
1 35895U 93036AUJ 13294.54530978  .00000739  00000-0  52356-3 0  2447
2 35895 074.0582 003.8596 0234264 046.1606 315.8888 13.87023150210265
0 COSMOS 2251 DEB
1 35895U 93036AUJ 13295.55503564  .00000784  00000-0  55378-3 0  2458
2 35895 074.0564 002.1519 0235071 043.8900 318.0599 13.87025427210409
